STARLINK-31720          
1 59497U 24071P   26068.12369372  .00000952  00000+0  44134-4 0  9998
2 59497  43.0029 343.4073 0003394 263.6483  96.3983 15.27582537108113
FLOCK 4G-25             
1 62646U 25009AP  26068.74572546  .00010373  00000+0  38902-3 0  9990
2 62646  97.4049 151.4141 0000828 316.3151  43.8023 15.27424196 63734
